{
  "type": "FeatureCollection",
  "features": [
    {
      "type": "Feature",
      "properties": {
        "norad_id": 66600,
        "name": "STARLINK-35980",
        "group": "last-30-days",
        "lat": -24.43739892760888,
        "lon": -169.59753911539482,
        "alt_km": 383.6101124594079,
        "timestamp": "2025-12-08T03:50:05.784474+00:00",
        "meta_object_name": "STARLINK-35980",
        "meta_object_id": "2025-270N",
        "meta_epoch": "2025-12-07T06:00:04.999968",
        "meta_mean_motion": 15.6571674,
        "meta_eccentricity": 0.00014885,
        "meta_inclination": 42.9993,
        "meta_ra_of_asc_node": 225.0171,
        "meta_arg_of_pericenter": 258.5215,
        "meta_mean_anomaly": 336.5739,
        "meta_ephemeris_type": 0,
        "meta_classification_type": "U",
        "meta_norad_cat_id": 66600,
        "meta_element_set_no": 999,
        "meta_rev_at_epoch": 341,
        "meta_bstar": -0.021737261,
        "meta_mean_motion_dot": -0.01989864,
        "meta_mean_motion_ddot": 0,
        "tle_line1": "1 66600U 25270N   25341.25005787 -.01989864  00000+0 -21737-1 0  9990",
        "tle_line2": "2 66600  42.9993 225.0171 0001488 258.5215 336.5739 15.65716740  3419"
      },
      "geometry": {
        "type": "Point",
        "coordinates": [
          -169.59753911539482,
          -24.43739892760888
        ]
      }
    },
    {
      "type": "Feature",
      "properties": {
        "norad_id": 66601,
        "name": "STARLINK-35978",
        "group": "last-30-days",
        "lat": -23.2877093414479,
        "lon": -167.92603336295747,
        "alt_km": 383.5688206113691,
        "timestamp": "2025-12-08T03:50:05.784484+00:00",
        "meta_object_name": "STARLINK-35978",
        "meta_object_id": "2025-270P",
        "meta_epoch": "2025-12-07T06:00:04.999968",
        "meta_mean_motion": 15.65715678,
        "meta_eccentricity": 0.00014875,
        "meta_inclination": 42.9992,
        "meta_ra_of_asc_node": 225.0123,
        "meta_arg_of_pericenter": 258.3371,
        "meta_mean_anomaly": 338.6764,
        "meta_ephemeris_type": 0,
        "meta_classification_type": "U",
        "meta_norad_cat_id": 66601,
        "meta_element_set_no": 999,
        "meta_rev_at_epoch": 335,
        "meta_bstar": -0.021727827,
        "meta_mean_motion_dot": -0.01989029,
        "meta_mean_motion_ddot": 0,
        "tle_line1": "1 66601U 25270P   25341.25005787 -.01989029  00000+0 -21728-1 0  9994",
        "tle_line2": "2 66601  42.9992 225.0123 0001487 258.3371 338.6764 15.65715678  3359"
      },
      "geometry": {
        "type": "Point",
        "coordinates": [
          -167.92603336295747,
          -23.2877093414479
        ]
      }
    },
    {
      "type": "Feature",
      "properties": {
        "norad_id": 66602,
        "name": "STARLINK-36050",
        "group": "last-30-days",
        "lat": -22.12214195242428,
        "lon": -166.28609725932228,
        "alt_km": 383.48267704284626,
        "timestamp": "2025-12-08T03:50:05.784493+00:00",
        "meta_object_name": "STARLINK-36050",
        "meta_object_id": "2025-270Q",
        "meta_epoch": "2025-12-07T06:00:04.999968",
        "meta_mean_motion": 15.65718199,
        "meta_eccentricity": 0.00015055,
        "meta_inclination": 42.9991,
        "meta_ra_of_asc_node": 225.0071,
        "meta_arg_of_pericenter": 259.4874,
        "meta_mean_anomaly": 339.4414,
        "meta_ephemeris_type": 0,
        "meta_classification_type": "U",
        "meta_norad_cat_id": 66602,
        "meta_element_set_no": 999,
        "meta_rev_at_epoch": 341,
        "meta_bstar": -0.021756628,
        "meta_mean_motion_dot": -0.01991539,
        "meta_mean_motion_ddot": 0,
        "tle_line1": "1 66602U 25270Q   25341.25005787 -.01991539  00000+0 -21757-1 0  9996",
        "tle_line2": "2 66602  42.9991 225.0071 0001505 259.4874 339.4414 15.65718199  3411"
      },
      "geometry": {
        "type": "Point",
        "coordinates": [
          -166.28609725932228,
          -22.12214195242428
        ]
      }
    },
    {
      "type": "Feature",
      "properties": {
        "norad_id": 66603,
        "name": "STARLINK-36048",
        "group": "last-30-days",
        "lat": -20.943294215829617,
        "lon": -164.67665617617513,
        "alt_km": 383.2850517153356,
        "timestamp": "2025-12-08T03:50:05.784503+00:00",
        "meta_object_name": "STARLINK-36048",
        "meta_object_id": "2025-270R",
        "meta_epoch": "2025-12-07T06:00:04.999968",
        "meta_mean_motion": 15.65719317,
        "meta_eccentricity": 0.00015811,
        "meta_inclination": 42.999,
        "meta_ra_of_asc_node": 225.0025,
        "meta_arg_of_pericenter": 263.5526,
        "meta_mean_anomaly": 337.2935,
        "meta_ephemeris_type": 0,
        "meta_classification_type": "U",
        "meta_norad_cat_id": 66603,
        "meta_element_set_no": 999,
        "meta_rev_at_epoch": 341,
        "meta_bstar": -0.021793682,
        "meta_mean_motion_dot": -0.01994659,
        "meta_mean_motion_ddot": 0,
        "tle_line1": "1 66603U 25270R   25341.25005787 -.01994659  00000+0 -21794-1 0  9994",
        "tle_line2": "2 66603  42.9990 225.0025 0001581 263.5526 337.2935 15.65719317  3411"
      },
      "geometry": {
        "type": "Point",
        "coordinates": [
          -164.67665617617513,
          -20.943294215829617
        ]
      }
    },
    {
      "type": "Feature",
      "properties": {
        "norad_id": 66604,
        "name": "STARLINK-35977",
        "group": "last-30-days",
        "lat": -19.7463166435918,
        "lon": -163.0891175920493,
        "alt_km": 383.3626093546636,
        "timestamp": "2025-12-08T03:50:05.784515+00:00",
        "meta_object_name": "STARLINK-35977",
        "meta_object_id": "2025-270S",
        "meta_epoch": "2025-12-07T06:00:04.999968",
        "meta_mean_motion": 15.65721487,
        "meta_eccentricity": 0.00015624,
        "meta_inclination": 42.999,
        "meta_ra_of_asc_node": 224.9971,
        "meta_arg_of_pericenter": 259.9029,
        "meta_mean_anomaly": 342.8591,
        "meta_ephemeris_type": 0,
        "meta_classification_type": "U",
        "meta_norad_cat_id": 66604,
        "meta_element_set_no": 999,
        "meta_rev_at_epoch": 351,
        "meta_bstar": -0.021823746,
        "meta_mean_motion_dot": -0.01997216,
        "meta_mean_motion_ddot": 0,
        "tle_line1": "1 66604U 25270S   25341.25005787 -.01997216  00000+0 -21824-1 0  9991",
        "tle_line2": "2 66604  42.9990 224.9971 0001562 259.9029 342.8591 15.65721487  3518"
      },
      "geometry": {
        "type": "Point",
        "coordinates": [
          -163.0891175920493,
          -19.7463166435918
        ]
      }
    },
    {
      "type": "Feature",
      "properties": {
        "norad_id": 66605,
        "name": "STARLINK-36052",
        "group": "last-30-days",
        "lat": -18.529363570905886,
        "lon": -161.51675777537343,
        "alt_km": 383.315272215541,
        "timestamp": "2025-12-08T03:50:05.784527+00:00",
        "meta_object_name": "STARLINK-36052",
        "meta_object_id": "2025-270T",
        "meta_epoch": "2025-12-07T06:00:04.999968",
        "meta_mean_motion": 15.65717395,
        "meta_eccentricity": 0.00015318,
        "meta_inclination": 42.9991,
        "meta_ra_of_asc_node": 224.9925,
        "meta_arg_of_pericenter": 259.2516,
        "meta_mean_anomaly": 345.4303,
        "meta_ephemeris_type": 0,
        "meta_classification_type": "U",
        "meta_norad_cat_id": 66605,
        "meta_element_set_no": 999,
        "meta_rev_at_epoch": 351,
        "meta_bstar": -0.021762492,
        "meta_mean_motion_dot": -0.01991975,
        "meta_mean_motion_ddot": 0,
        "tle_line1": "1 66605U 25270T   25341.25005787 -.01991975  00000+0 -21762-1 0  9999",
        "tle_line2": "2 66605  42.9991 224.9925 0001531 259.2516 345.4303 15.65717395  3512"
      },
      "geometry": {
        "type": "Point",
        "coordinates": [
          -161.51675777537343,
          -18.529363570905886
        ]
      }
    },
    {
      "type": "Feature",
      "properties": {
        "norad_id": 66606,
        "name": "STARLINK-36063",
        "group": "last-30-days",
        "lat": -16.077516974800602,
        "lon": -158.46222699795112,
        "alt_km": 383.185923413871,
        "timestamp": "2025-12-08T03:50:05.784537+00:00",
        "meta_object_name": "STARLINK-36063",
        "meta_object_id": "2025-270U",
        "meta_epoch": "2025-12-07T06:00:04.999968",
        "meta_mean_motion": 15.65722112,
        "meta_eccentricity": 0.00015446,
        "meta_inclination": 42.9991,
        "meta_ra_of_asc_node": 224.9828,
        "meta_arg_of_pericenter": 260.1251,
        "meta_mean_anomaly": 348.3907,
        "meta_ephemeris_type": 0,
        "meta_classification_type": "U",
        "meta_norad_cat_id": 66606,
        "meta_element_set_no": 999,
        "meta_rev_at_epoch": 351,
        "meta_bstar": -0.02186808,
        "meta_mean_motion_dot": -0.0200081,
        "meta_mean_motion_ddot": 0,
        "tle_line1": "1 66606U 25270U   25341.25005787 -.02000810  00000+0 -21868-1 0  9997",
        "tle_line2": "2 66606  42.9991 224.9828 0001544 260.1251 348.3907 15.65722112  3511"
      },
      "geometry": {
        "type": "Point",
        "coordinates": [
          -158.46222699795112,
          -16.077516974800602
        ]
      }
    }
  ]
}